[{"OBJECT_NAME":"LEMUR-2-STAR-FOX","OBJECT_ID":"2025-009CR","EPOCH":"2026-03-09T19:30:12.149568","MEAN_MOTION":15.00891969,"ECCENTRICITY":0.00025005,"INCLINATION":97.7038,"RA_OF_ASC_NODE":151.2547,"ARG_OF_PERICENTER":152.191,"MEAN_ANOMALY":207.9448,"EPHEMERIS_TYPE":0,"CLASSIFICATION_TYPE":"U","NORAD_CAT_ID":62696,"ELEMENT_SET_NO":999,"REV_AT_EPOCH":6264,"BSTAR":0.000772765,"MEAN_MOTION_DOT":9.785e-5,"MEAN_MOTION_DDOT":0},{"OBJECT_NAME":"ATLAS D R\/B","OBJECT_ID":"1965-078B","EPOCH":"2026-03-09T20:46:56.586144","MEAN_MOTION":13.36861601,"ECCENTRICITY":0.09711083,"INCLINATION":144.2243,"RA_OF_ASC_NODE":158.6484,"ARG_OF_PERICENTER":223.7615,"MEAN_ANOMALY":128.1873,"EPHEMERIS_TYPE":0,"CLASSIFICATION_TYPE":"U","NORAD_CAT_ID":1616,"ELEMENT_SET_NO":999,"REV_AT_EPOCH":73741,"BSTAR":0.00067418119,"MEAN_MOTION_DOT":7.934e-5,"MEAN_MOTION_DDOT":0}]
